CTC1_L_00012001-01
1 10000U 26114CF  26075.70028935  .00000000  00000+0  00000-0 0  9998
2 10000  95.0000   0.0000 0000000   0.0000   0.0000 15.90815360    16
CTC1_L_00012001-02
1 10001U 24221LP  26075.70028935  .00000000  00000+0  00000-0 0  9996
2 10001  95.0000   0.0000 0000000   0.0000  90.0000 15.90815360    16
CTC1_L_00012001-03
1 10002U 25510HP  26075.70028935  .00000000  00000+0  00000-0 0  9999
2 10002  95.0000   0.0000 0000000   0.0000 180.0000 15.90815360    17
CTC1_L_00012001-04
1 10003U 25318DU  26075.70028935  .00000000  00000+0  00000-0 0  9996
2 10003  95.0000   0.0000 0000000   0.0000 270.0000 15.90815360    18
CTC1_L_00012002-01
1 10004U 24866SR  26075.70028935  .00000000  00000+0  00000-0 0  9994
2 10004  95.0000  12.0000 0000000   0.0000  12.0000 15.90815360    16
CTC1_L_00012002-02
1 10005U 23054W   26075.70028935  .00000000  00000+0  00000-0 0  9993
2 10005  95.0000  12.0000 0000000   0.0000 102.0000 15.90815360    17
CTC1_L_00012002-03
1 10006U 26063PM  26075.70028935  .00000000  00000+0  00000-0 0  9997
2 10006  95.0000  12.0000 0000000   0.0000 192.0000 15.90815360    17
CTC1_L_00012002-04
1 10007U 22829RO  26075.70028935  .00000000  00000+0  00000-0 0  9994
2 10007  95.0000  12.0000 0000000   0.0000 282.0000 15.90815360    18
CTC1_L_00012003-01
1 10008U 22771DG  26075.70028935  .00000000  00000+0  00000-0 0  9991
2 10008  95.0000  24.0000 0000000   0.0000  24.0000 15.90815360    16
CTC1_L_00012003-02
1 10009U 26402QS  26075.70028935  .00000000  00000+0  00000-0 0  9997
2 10009  95.0000  24.0000 0000000   0.0000 114.0000 15.90815360    17
CTC1_L_00012003-03
1 10010U 26431TV  26075.70028935  .00000000  00000+0  00000-0 0  9991
2 10010  95.0000  24.0000 0000000   0.0000 204.0000 15.90815360    19
CTC1_L_00012003-04
1 10011U 23974HW  26075.70028935  .00000000  00000+0  00000-0 0  9991
2 10011  95.0000  24.0000 0000000   0.0000 294.0000 15.90815360    19
CTC1_L_00012004-01
1 10012U 23549UW  26075.70028935  .00000000  00000+0  00000-0 0  9990
2 10012  95.0000  36.0000 0000000   0.0000  36.0000 15.90815360    17
CTC1_L_00012004-02
1 10013U 24564ZE  26075.70028935  .00000000  00000+0  00000-0 0  9999
2 10013  95.0000  36.0000 0000000   0.0000 126.0000 15.90815360    18
CTC1_L_00012004-03
1 10014U 23696OK  26075.70028935  .00000000  00000+0  00000-0 0  9995
2 10014  95.0000  36.0000 0000000   0.0000 216.0000 15.90815360    19
CTC1_L_00012004-04
1 10015U 22514CR  26075.70028935  .00000000  00000+0  00000-0 0  9994
2 10015  95.0000  36.0000 0000000   0.0000 306.0000 15.90815360    10
CTC1_L_00012005-01
1 10016U 26979EB  26075.70028935  .00000000  00000+0  00000-0 0  9994
2 10016  95.0000  48.0000 0000000   0.0000  48.0000 15.90815360    17
CTC1_L_00012005-02
1 10017U 25452Y   26075.70028935  .00000000  00000+0  00000-0 0  9990
2 10017  95.0000  48.0000 0000000   0.0000 138.0000 15.90815360    18
CTC1_L_00012005-03
1 10018U 24908LW  26075.70028935  .00000000  00000+0  00000-0 0  9996
2 10018  95.0000  48.0000 0000000   0.0000 228.0000 15.90815360    19
CTC1_L_00012005-04
1 10019U 22908DW  26075.70028935  .00000000  00000+0  00000-0 0  9995
2 10019  95.0000  48.0000 0000000   0.0000 318.0000 15.90815360    10
CTC1_L_00012006-01
1 10020U 24259PH  26075.70028935  .00000000  00000+0  00000-0 0  9998
2 10020  95.0000  60.0000 0000000   0.0000  60.0000 15.90815360    10
CTC1_L_00012006-02
1 10021U 24553EM  26075.70028935  .00000000  00000+0  00000-0 0  9996
2 10021  95.0000  60.0000 0000000   0.0000 150.0000 15.90815360    11
CTC1_L_00012006-03
1 10022U 25822TH  26075.70028935  .00000000  00000+0  00000-0 0  9997
2 10022  95.0000  60.0000 0000000   0.0000 240.0000 15.90815360    12
CTC1_L_00012006-04
1 10023U 23723ST  26075.70028935  .00000000  00000+0  00000-0 0  9996
2 10023  95.0000  60.0000 0000000   0.0000 330.0000 15.90815360    13
CTC1_L_00012007-01
1 10024U 24802W   26075.70028935  .00000000  00000+0  00000-0 0  9996
2 10024  95.0000  72.0000 0000000   0.0000  72.0000 15.90815360    10
CTC1_L_00012007-02
1 10025U 23576AK  26075.70028935  .00000000  00000+0  00000-0 0  9994
2 10025  95.0000  72.0000 0000000   0.0000 162.0000 15.90815360    11
CTC1_L_00012007-03
1 10026U 25485HC  26075.70028935  .00000000  00000+0  00000-0 0  9996
2 10026  95.0000  72.0000 0000000   0.0000 252.0000 15.90815360    12
CTC1_L_00012007-04
1 10027U 25654JW  26075.70028935  .00000000  00000+0  00000-0 0  9995
2 10027  95.0000  72.0000 0000000   0.0000 342.0000 15.90815360    13
CTC1_L_00012008-01
1 10028U 25531DU  26075.70028935  .00000000  00000+0  00000-0 0  9990
2 10028  95.0000  84.0000 0000000   0.0000  84.0000 15.90815360    10
CTC1_L_00012008-02
1 10029U 24933MO  26075.70028935  .00000000  00000+0  00000-0 0  9996
2 10029  95.0000  84.0000 0000000   0.0000 174.0000 15.90815360    11
CTC1_L_00012008-03
1 10030U 22481HE  26075.70028935  .00000000  00000+0  00000-0 0  9994
2 10030  95.0000  84.0000 0000000   0.0000 264.0000 15.90815360    13
CTC1_L_00012008-04
1 10031U 26281GX  26075.70028935  .00000000  00000+0  00000-0 0  9997
2 10031  95.0000  84.0000 0000000   0.0000 354.0000 15.90815360    14
CTC1_L_00012009-01
1 10032U 25961CA  26075.70028935  .00000000  00000+0  00000-0 0  9992
2 10032  95.0000  96.0000 0000000   0.0000  96.0000 15.90815360    11
CTC1_L_00012009-02
1 10033U 25531VA  26075.70028935  .00000000  00000+0  00000-0 0  9996
2 10033  95.0000  96.0000 0000000   0.0000 186.0000 15.90815360    12
CTC1_L_00012009-03
1 10034U 26741HN  26075.70028935  .00000000  00000+0  00000-0 0  9991
2 10034  95.0000  96.0000 0000000   0.0000 276.0000 15.90815360    13
CTC1_L_00012009-04
1 10035U 24298GJ  26075.70028935  .00000000  00000+0  00000-0 0  9997
2 10035  95.0000  96.0000 0000000   0.0000   6.0000 15.90815360    15
CTC1_L_00012010-01
1 10036U 22987LZ  26075.70028935  .00000000  00000+0  00000-0 0  9991
2 10036  95.0000 108.0000 0000000   0.0000 108.0000 15.90815360    13
CTC1_L_00012010-02
1 10037U 26521ZE  26075.70028935  .00000000  00000+0  00000-0 0  9990
2 10037  95.0000 108.0000 0000000   0.0000 198.0000 15.90815360    13
CTC1_L_00012010-03
1 10038U 24856HZ  26075.70028935  .00000000  00000+0  00000-0 0  9990
2 10038  95.0000 108.0000 0000000   0.0000 288.0000 15.90815360    14
CTC1_L_00012010-04
1 10039U 26790JC  26075.70028935  .00000000  00000+0  00000-0 0  9990
2 10039  95.0000 108.0000 0000000   0.0000  18.0000 15.90815360    16
CTC1_L_00012011-01
1 10040U 23523QG  26075.70028935  .00000000  00000+0  00000-0 0  9993
2 10040  95.0000 120.0000 0000000   0.0000 120.0000 15.90815360    16
CTC1_L_00012011-02
1 10041U 23217QQ  26075.70028935  .00000000  00000+0  00000-0 0  9994
2 10041  95.0000 120.0000 0000000   0.0000 210.0000 15.90815360    17
CTC1_L_00012011-03
1 10042U 26012EZ  26075.70028935  .00000000  00000+0  00000-0 0  9991
2 10042  95.0000 120.0000 0000000   0.0000 300.0000 15.90815360    18
CTC1_L_00012011-04
1 10043U 24425WP  26075.70028935  .00000000  00000+0  00000-0 0  9998
2 10043  95.0000 120.0000 0000000   0.0000  30.0000 15.90815360    19
CTC1_L_00012012-01
1 10044U 24975PB  26075.70028935  .00000000  00000+0  00000-0 0  9999
2 10044  95.0000 132.0000 0000000   0.0000 132.0000 15.90815360    16
CTC1_L_00012012-02
1 10045U 23065OL  26075.70028935  .00000000  00000+0  00000-0 0  9999
2 10045  95.0000 132.0000 0000000   0.0000 222.0000 15.90815360    17
CTC1_L_00012012-03
1 10046U 24785DD  26075.70028935  .00000000  00000+0  00000-0 0  9990
2 10046  95.0000 132.0000 0000000   0.0000 312.0000 15.90815360    18
CTC1_L_00012012-04
1 10047U 25068FT  26075.70028935  .00000000  00000+0  00000-0 0  9996
2 10047  95.0000 132.0000 0000000   0.0000  42.0000 15.90815360    19
CTC1_L_00012013-01
1 10048U 26832CV  26075.70028935  .00000000  00000+0  00000-0 0  9997
2 10048  95.0000 144.0000 0000000   0.0000 144.0000 15.90815360    16
CTC1_L_00012013-02
1 10049U 26052ZK  26075.70028935  .00000000  00000+0  00000-0 0  9992
2 10049  95.0000 144.0000 0000000   0.0000 234.0000 15.90815360    17
CTC1_L_00012013-03
1 10050U 25798FT  26075.70028935  .00000000  00000+0  00000-0 0  9990
2 10050  95.0000 144.0000 0000000   0.0000 324.0000 15.90815360    19
CTC1_L_00012013-04
1 10051U 22616FN  26075.70028935  .00000000  00000+0  00000-0 0  9997
2 10051  95.0000 144.0000 0000000   0.0000  54.0000 15.90815360    10
CTC1_L_00012014-01
1 10052U 24748GI  26075.70028935  .00000000  00000+0  00000-0 0  9996
2 10052  95.0000 156.0000 0000000   0.0000 156.0000 15.90815360    17
CTC1_L_00012014-02
1 10053U 23065AR  26075.70028935  .00000000  00000+0  00000-0 0  9998
2 10053  95.0000 156.0000 0000000   0.0000 246.0000 15.90815360    18
CTC1_L_00012014-03
1 10054U 25583KY  26075.70028935  .00000000  00000+0  00000-0 0  9996
2 10054  95.0000 156.0000 0000000   0.0000 336.0000 15.90815360    19
CTC1_L_00012014-04
1 10055U 22469NR  26075.70028935  .00000000  00000+0  00000-0 0  9997
2 10055  95.0000 156.0000 0000000   0.0000  66.0000 15.90815360    10
CTC1_L_00012015-01
1 10056U 24964RK  26075.70028935  .00000000  00000+0  00000-0 0  9990
2 10056  95.0000 168.0000 0000000   0.0000 168.0000 15.90815360    17
CTC1_L_00012015-02
1 10057U 24570HY  26075.70028935  .00000000  00000+0  00000-0 0  9994
2 10057  95.0000 168.0000 0000000   0.0000 258.0000 15.90815360    18
CTC1_L_00012015-03
1 10058U 22729YJ  26075.70028935  .00000000  00000+0  00000-0 0  9999
2 10058  95.0000 168.0000 0000000   0.0000 348.0000 15.90815360    19
CTC1_L_00012015-04
1 10059U 26136TQ  26075.70028935  .00000000  00000+0  00000-0 0  9996
2 10059  95.0000 168.0000 0000000   0.0000  78.0000 15.90815360    10
CTC1_L_00012016-01
1 10060U 23327UG  26075.70028935  .00000000  00000+0  00000-0 0  9997
2 10060  95.0000 180.0000 0000000   0.0000 180.0000 15.90815360    10
CTC1_L_00012016-02
1 10061U 23419KG  26075.70028935  .00000000  00000+0  00000-0 0  9990
2 10061  95.0000 180.0000 0000000   0.0000 270.0000 15.90815360    11
